LEMUR-2-ALISIA          
1 62706U 25009DB  26068.73770453  .00009177  00000+0  72005-3 0  9995
2 62706  97.7037 151.6973 0006582 159.9869 200.1615 15.01147598 85230
QPS-SAR-11 (YAMATSUMI-I)
1 64340U 25125A   26068.25519236  .00007204  00000+0  57385-3 0  9990
2 64340  42.0098  22.3823 0010044 210.0400 149.9850 15.00627459 40603
